{
  "type": "FeatureCollection",
  "features": [
    {
      "type": "Feature",
      "properties": {
        "norad_id": 40938,
        "name": "BEIDOU-3S IGSO-2S (C56)",
        "group": "beidou",
        "lat": 47.875052775808705,
        "lon": 10.170726462137807,
        "alt_km": 35761.73953767871,
        "timestamp": "2025-12-25T11:37:44.700574+00:00",
        "meta_object_name": "BEIDOU-3S IGSO-2S (C56)",
        "meta_object_id": "2015-053A",
        "meta_epoch": "2025-12-24T16:58:26.308416",
        "meta_mean_motion": 1.00267681,
        "meta_eccentricity": 0.00606582,
        "meta_inclination": 49.4921,
        "meta_ra_of_asc_node": 260.8653,
        "meta_arg_of_pericenter": 188.5708,
        "meta_mean_anomaly": 354.4321,
        "meta_ephemeris_type": 0,
        "meta_classification_type": "U",
        "meta_norad_cat_id": 40938,
        "meta_element_set_no": 999,
        "meta_rev_at_epoch": 3760,
        "meta_bstar": 0,
        "meta_mean_motion_dot": -1.14e-06,
        "meta_mean_motion_ddot": 0,
        "tle_line1": "1 40938U 15053A   25358.70724894 -.00000114  00000+0  00000+0 0  9997",
        "tle_line2": "2 40938  49.4921 260.8653 0060658 188.5708 354.4321  1.00267681 37606"
      },
      "geometry": {
        "type": "Point",
        "coordinates": [
          10.170726462137807,
          47.875052775808705
        ]
      }
    },
    {
      "type": "Feature",
      "properties": {
        "norad_id": 41434,
        "name": "BEIDOU-2 IGSO-6 (C13)",
        "group": "beidou",
        "lat": -31.24397472320212,
        "lon": 19.276027411904888,
        "alt_km": 35795.27904772034,
        "timestamp": "2025-12-25T11:37:44.700586+00:00",
        "meta_object_name": "BEIDOU-2 IGSO-6 (C13)",
        "meta_object_id": "2016-021A",
        "meta_epoch": "2025-12-25T02:21:14.682240",
        "meta_mean_motion": 1.00290736,
        "meta_eccentricity": 0.0060824,
        "meta_inclination": 59.9818,
        "meta_ra_of_asc_node": 39.7747,
        "meta_arg_of_pericenter": 230.5129,
        "meta_mean_anomaly": 312.5474,
        "meta_ephemeris_type": 0,
        "meta_classification_type": "U",
        "meta_norad_cat_id": 41434,
        "meta_element_set_no": 999,
        "meta_rev_at_epoch": 3573,
        "meta_bstar": 0,
        "meta_mean_motion_dot": -1.35e-06,
        "meta_mean_motion_ddot": 0,
        "tle_line1": "1 41434U 16021A   25359.09808660 -.00000135  00000+0  00000+0 0  9995",
        "tle_line2": "2 41434  59.9818  39.7747 0060824 230.5129 312.5474  1.00290736 35739"
      },
      "geometry": {
        "type": "Point",
        "coordinates": [
          19.276027411904888,
          -31.24397472320212
        ]
      }
    },
    {
      "type": "Feature",
      "properties": {
        "norad_id": 41586,
        "name": "BEIDOU-2 G7 (C03)",
        "group": "beidou",
        "lat": -1.3435110922713442,
        "lon": 19.066873715461142,
        "alt_km": 35773.0297773793,
        "timestamp": "2025-12-25T11:37:44.700598+00:00",
        "meta_object_name": "BEIDOU-2 G7 (C03)",
        "meta_object_id": "2016-037A",
        "meta_epoch": "2025-12-25T01:25:38.455104",
        "meta_mean_motion": 1.00268771,
        "meta_eccentricity": 0.0005203,
        "meta_inclination": 1.7852,
        "meta_ra_of_asc_node": 67.8927,
        "meta_arg_of_pericenter": 0.9679,
        "meta_mean_anomaly": 156.8036,
        "meta_ephemeris_type": 0,
        "meta_classification_type": "U",
        "meta_norad_cat_id": 41586,
        "meta_element_set_no": 999,
        "meta_rev_at_epoch": 514,
        "meta_bstar": 0,
        "meta_mean_motion_dot": -3.32e-06,
        "meta_mean_motion_ddot": 0,
        "tle_line1": "1 41586U 16037A   25359.05947286 -.00000332  00000+0  00000+0 0  9993",
        "tle_line2": "2 41586   1.7852  67.8927 0005203   0.9679 156.8036  1.00268771  5140"
      },
      "geometry": {
        "type": "Point",
        "coordinates": [
          19.066873715461142,
          -1.3435110922713442
        ]
      }
    },
    {
      "type": "Feature",
      "properties": {
        "norad_id": 43001,
        "name": "BEIDOU-3 M1 (C19)",
        "group": "beidou",
        "lat": -30.685222022356037,
        "lon": -88.09127078567896,
        "alt_km": 21529.428088058135,
        "timestamp": "2025-12-25T11:37:44.700609+00:00",
        "meta_object_name": "BEIDOU-3 M1 (C19)",
        "meta_object_id": "2017-069A",
        "meta_epoch": "2025-12-24T02:03:22.370112",
        "meta_mean_motion": 1.86231021,
        "meta_eccentricity": 0.00099255,
        "meta_inclination": 56.5356,
        "meta_ra_of_asc_node": 68.8594,
        "meta_arg_of_pericenter": 302.4524,
        "meta_mean_anomaly": 57.5061,
        "meta_ephemeris_type": 0,
        "meta_classification_type": "U",
        "meta_norad_cat_id": 43001,
        "meta_element_set_no": 999,
        "meta_rev_at_epoch": 5534,
        "meta_bstar": 0,
        "meta_mean_motion_dot": -2.4e-07,
        "meta_mean_motion_ddot": 0,
        "tle_line1": "1 43001U 17069A   25358.08567558 -.00000024  00000+0  00000+0 0  9993",
        "tle_line2": "2 43001  56.5356  68.8594 0009925 302.4524  57.5061  1.86231021 55340"
      },
      "geometry": {
        "type": "Point",
        "coordinates": [
          -88.09127078567896,
          -30.685222022356037
        ]
      }
    },
    {
      "type": "Feature",
      "properties": {
        "norad_id": 43002,
        "name": "BEIDOU-3 M2 (C20)",
        "group": "beidou",
        "lat": -55.018100858519816,
        "lon": -40.39075582140092,
        "alt_km": 21527.134092352135,
        "timestamp": "2025-12-25T11:37:44.700621+00:00",
        "meta_object_name": "BEIDOU-3 M2 (C20)",
        "meta_object_id": "2017-069B",
        "meta_epoch": "2025-12-25T02:21:04.022208",
        "meta_mean_motion": 1.86231058,
        "meta_eccentricity": 0.0006739,
        "meta_inclination": 56.5361,
        "meta_ra_of_asc_node": 68.8616,
        "meta_arg_of_pericenter": 327.75,
        "meta_mean_anomaly": 32.2629,
        "meta_ephemeris_type": 0,
        "meta_classification_type": "U",
        "meta_norad_cat_id": 43002,
        "meta_element_set_no": 999,
        "meta_rev_at_epoch": 5535,
        "meta_bstar": 0,
        "meta_mean_motion_dot": -2.5e-07,
        "meta_mean_motion_ddot": 0,
        "tle_line1": "1 43002U 17069B   25359.09796322 -.00000025  00000+0  00000+0 0  9990",
        "tle_line2": "2 43002  56.5361  68.8616 0006739 327.7500  32.2629  1.86231058 55357"
      },
      "geometry": {
        "type": "Point",
        "coordinates": [
          -40.39075582140092,
          -55.018100858519816
        ]
      }
    },
    {
      "type": "Feature",
      "properties": {
        "norad_id": 43107,
        "name": "BEIDOU-3 M7 (C27)",
        "group": "beidou",
        "lat": 50.594176019425035,
        "lon": 8.619380807616531,
        "alt_km": 21513.68617349472,
        "timestamp": "2025-12-25T11:37:44.700632+00:00",
        "meta_object_name": "BEIDOU-3 M7 (C27)",
        "meta_object_id": "2018-003A",
        "meta_epoch": "2025-12-23T05:31:08.538816",
        "meta_mean_motion": 1.86232625,
        "meta_eccentricity": 0.0002961,
        "meta_inclination": 54.4874,
        "meta_ra_of_asc_node": 308.4506,
        "meta_arg_of_pericenter": 66.5422,
        "meta_mean_anomaly": 293.4915,
        "meta_ephemeris_type": 0,
        "meta_classification_type": "U",
        "meta_norad_cat_id": 43107,
        "meta_element_set_no": 999,
        "meta_rev_at_epoch": 5407,
        "meta_bstar": 0,
        "meta_mean_motion_dot": -5.5e-07,
        "meta_mean_motion_ddot": 0,
        "tle_line1": "1 43107U 18003A   25357.22995994 -.00000055  00000+0  00000+0 0  9997",
        "tle_line2": "2 43107  54.4874 308.4506 0002961  66.5422 293.4915  1.86232625 54072"
      },
      "geometry": {
        "type": "Point",
        "coordinates": [
          8.619380807616531,
          50.594176019425035
        ]
      }
    },
    {
      "type": "Feature",
      "properties": {
        "norad_id": 43108,
        "name": "BEIDOU-3 M8 (C28)",
        "group": "beidou",
        "lat": 50.55298753781503,
        "lon": 68.19419091072889,
        "alt_km": 21534.713729364634,
        "timestamp": "2025-12-25T11:37:44.700643+00:00",
        "meta_object_name": "BEIDOU-3 M8 (C28)",
        "meta_object_id": "2018-003B",
        "meta_epoch": "2025-12-24T05:58:21.185184",
        "meta_mean_motion": 1.86231107,
        "meta_eccentricity": 0.00045887,
        "meta_inclination": 54.4794,
        "meta_ra_of_asc_node": 308.398,
        "meta_arg_of_pericenter": 279.3969,
        "meta_mean_anomaly": 80.5568,
        "meta_ephemeris_type": 0,
        "meta_classification_type": "U",
        "meta_norad_cat_id": 43108,
        "meta_element_set_no": 999,
        "meta_rev_at_epoch": 5410,
        "meta_bstar": 0,
        "meta_mean_motion_dot": -5.4e-07,
        "meta_mean_motion_ddot": 0,
        "tle_line1": "1 43108U 18003B   25358.24885631 -.00000054  00000+0  00000+0 0  9996",
        "tle_line2": "2 43108  54.4794 308.3980 0004588 279.3969  80.5568  1.86231107 54103"
      },
      "geometry": {
        "type": "Point",
        "coordinates": [
          68.19419091072889,
          50.55298753781503
        ]
      }
    }
  ]
}